#dP2024  9 26  0  0  0.00000000      96 __u+U IGS20 EXT  IAC
## 2333 345600.00000000   900.00000000 60579 0.0000000000000
+   54   G01G02G03G04G05G06G07G08G09G10G11G12G13G14G15G16G17
+        G18G19G20G21G22G23G24G25G26G27G28G29G30G31G32R01R02
+        R03R04R05R07R08R09R11R12R14R15R16R17R18R19R20R21R22
+        R24R25R26  0  0  0  0  0  0  0  0  0  0  0  0  0  0
+          0  0  0  0  0  0  0  0  0  0  0  0  0  0  0  0  0
++        12  6  6  6  7  7  8  6  7  6  8  7  7  7  6  8  7
++         6  7  7  7  7  7  8  6  8  6  7  6  7  8  7  7  8
++         9  6  7  7  8  8  7 10  8  7  8  6  9  8  9  7  6
++         7  8  7  0  0  0  0  0  0  0  0  0  0  0  0  0  0
++         0  0  0  0  0  0  0  0  0  0  0  0  0  0  0  0  0
%c M  cc GPS ccc cccc cccc cccc cccc ccccc ccccc ccccc ccccc
%c cc cc ccc ccc cccc cccc cccc cccc ccccc ccccc ccccc ccccc
%f  0.0000000  0.000000000  0.00000000000  0.000000000000000
%f  0.0000000  0.000000000  0.00000000000  0.000000000000000
%i    0    0    0    0      0      0      0      0         0
%i    0    0    0    0      0      0      0      0         0
/* IAC                                ULTRA-RAPID PREDICTION
/* S/V CLOCKS ARE ALIGNED TO GNSS TIME                      
/* G:C1WC2W R:C1PC2P E:C1XC5X C:C2IC6I J:C1CC2S             
/* PCV:IGS20_2317 OL/AL:FES2004  NONE     YN ORB:CoN CLK:CoN
*  2024 09 26 19 30  0.00000000
PG01   6128.829210 -24458.626525  -8160.060257    187.238767
PG02 -20519.852453 -10026.436486  14308.534123   -349.763697
PG03 -16460.764497   2515.707665  20496.328556    551.141117
PG04 -26528.663269   -885.082696   2282.557230    450.968777
PG05   9226.141822  14070.993214 -20716.841804   -187.882252
PG06   1843.911052  21594.806841  15347.311955      3.564260
PG07 -14031.409980   6201.684769 -21181.366858    -33.461103
PG08 -22111.063116  -7340.347338 -13261.746401    365.615292
PG09 -24263.821169   7630.392365  -7847.259884    373.251176
PG10   9908.243433 -24280.589892   3037.987073   -138.259181
PG11  12530.372221  23396.347300   1793.572849   -738.688572
PG12  15658.510168   2325.416663  21039.249625   -540.924575
PG13  14805.817235  13419.066676 -17845.233942    678.535059
PG14 -12880.112877  23066.184862   -909.894382    504.405801
PG15  22767.731356   5050.576392 -13382.294709    208.843465
PG16  -4776.379750 -17905.309126 -19195.022795   -170.522034
PG17 -11963.969832  13697.555061  19835.474668    614.765627
PG18  13069.856777  -7202.790503 -21953.705311   -655.443794
PG19  -2020.037403  14928.054989  21707.900294    543.100896
PG20   3230.473668  22752.876093 -13373.316137    370.245707
PG21 -20574.302834 -15237.120993   9280.083760    100.975685
PG22  -8509.881275  24224.189834   7791.219313    -65.645086
PG23  16013.361635 -18467.497538 -10078.290246    328.819580
PG24  20712.296256  12162.791984  11322.204277   -486.203902
PG25  17783.728521 -11141.626473  15782.397960    499.624296
PG26   2269.815485 -24612.044224  -9359.639449     69.907609
PG27 -12441.521131 -13092.395123 -19904.697080    -34.080944
PG28   -497.782949 -20718.337960  16597.767814   -425.329874
PG29  25732.216204  -3643.285811  -5842.720959   -575.290855
PG30  -6372.793999  16491.681935 -19591.913844   -313.847426
PG31  -9766.314907 -23637.471697   6151.355615   -224.194509
PG32   9554.465042 -14712.045829  20098.652630   -593.232855
PR01  19493.133780   -856.096189 -16440.250984     99.058266
PR02  23430.964985  -9956.651226   -718.595568    -24.857331
PR03  14037.915097 -14418.562440  15673.257333    108.295277
PR04  -2407.689447 -10594.563267  23099.515519    256.528735
PR05 -17808.654511  -1397.774609  18225.976545    138.242290
PR07 -13737.055892  14399.728338 -15957.436832     91.695234
PR08   2727.315256  10575.975125 -22999.918004     -6.426747
PR09 -10907.156176  10135.243547 -20666.614161    211.339790
PR11   1560.289826  24267.826243   7682.741884     10.809519
PR12   9483.281674   9825.469133  21574.452340     45.299826
PR14   5934.838212 -23444.352611   8161.232192     26.959492
PR15  -2266.016747 -23663.008082  -9241.793820     75.467087
PR16  -9307.571009 -10009.180203 -21533.001084     29.460279
PR17   1831.124469 -11514.461206 -22668.745690    125.482594
PR18 -12776.890575 -17286.564141 -13743.952616    163.987440
PR19 -20059.493967 -15740.071093    369.422323   -292.789948
PR20 -16773.210182  -2480.874175  19080.873695   -119.640020
PR21  -2530.657718  11043.032705  22861.945952   -137.793288
PR22  13062.661189  17865.600121  12709.598370     37.069330
PR24  16802.148986    991.658506 -19156.787092    -73.630993
PR25  -2041.760592  11948.304001  22456.235649    -97.278032
PR26   1206.451749  11208.695318 -22865.288140     44.443770
*  2024 09 26 19 45  0.00000000
PG01   6701.678082 -25007.892606  -5444.078688    187.229889
PG02 -21320.688352 -11215.832322  12022.220661   -349.756423
PG03 -15497.125434    287.153985  21383.314478    551.152209
PG04 -26123.865279  -1136.515707   5098.329004    450.975067
PG05   8301.152868  16141.624604 -19549.424210   -187.883448
PG06    694.433712  20132.607198  17321.559014      3.540306
PG07 -15458.524920   4137.833856 -20738.771017    -33.457446
PG08 -20541.090321  -7731.312458 -15372.865663    365.626456
PG09 -25017.918599   7476.979583  -5127.852847    373.265780
PG10  10163.785562 -24337.403350    120.441493   -138.270649
PG11  12139.687427  23216.333153   4625.440178   -738.691938
PG12  14506.561774   4537.947066  21497.132441   -540.927104
PG13  12726.391794  13420.946355 -19380.111418    678.536799
PG14 -13046.277704  22682.444287  -3730.256058    504.413438
PG15  21299.557682   5651.724267 -15463.811512    208.847378
PG16  -3628.211177 -19623.066390 -17639.223317   -170.512903
PG17 -14068.488109  13667.945273  18407.854838    614.754856
PG18  14466.954635  -5134.726677 -21676.749511   -655.445506
PG19  -4517.371920  14855.051917  21344.080361    543.105224
PG20   2674.363496  24058.252509 -11030.981392    370.245355
PG21 -21005.339394 -15972.118653   6674.508235    100.974995
PG22  -9037.499867  24709.236154   5079.621162    -65.648343
PG23  15673.562398 -17194.569172 -12570.826509    328.827049
PG24  21299.861513  13251.061030   8877.374510   -486.203340
PG25  17180.591363  -9245.879534  17561.351074    499.624294
PG26   2900.595311 -25359.197405  -6754.635556     69.899659
PG27 -10193.111376 -13395.132608 -20932.231065    -34.081319
PG28    831.359290 -19217.703285  18301.258089   -425.342027
PG29  26237.146045  -3436.294687  -3037.014403   -575.288681
PG30  -7828.845679  14656.071570 -20518.855565   -313.840916
PG31  -9025.511884 -23057.834483   8837.717228   -224.194033
PG32  11743.717466 -14821.484742  18784.061108   -593.229295
PR01  17542.751272     68.520703 -18526.864249     99.059301
PR02  23095.376530  -9979.884426  -3930.686407    -24.857466
PR03  15574.334290 -15316.129771  13157.323432    108.295811
PR04    120.432344 -11837.917226  22613.785975    256.530286
PR05 -15633.268985  -2320.414233  20035.599409    138.242741
PR07 -15314.889597  15318.282710 -13483.734762     91.695852
PR08    203.613978  11843.320848 -22542.945076     -6.426983
PR09 -10797.900698   7510.853897 -21818.284330    211.341605
PR11   1659.709179  25030.038349   4586.458904     10.808583
PR12   9387.128290  12397.936936  20250.297045     45.300161
PR14   5767.089235 -22268.424005  11062.200433     26.959427
PR15  -2330.504876 -24625.715573  -6226.677690     75.466671
PR16  -9230.613374 -12584.643875 -20175.992777     29.460453
PR17   4161.803175  -9906.728931 -23119.813329    125.485538
PR18 -11345.660449 -16099.360831 -16213.117140    163.989081
PR19 -20064.891021 -15472.512439  -2872.091929   -292.791199
PR20 -18643.510956  -3701.273146  17039.139758   -119.640413
PR21  -4858.588861   9407.907763  23211.291926   -137.796273
PR22  11742.743829  16754.835007  15260.483577     37.060462
PR24  18716.149733   2170.972834 -17188.350695    -73.632467
PR25  -4285.015406  10272.569521  22961.367053    -97.275325
PR26  -1270.071767  12483.075644 -22190.772614     44.461396
EOF
